HORYU-4                 
1 41340U 16012D   20346.52219169  .00000931  00000-0  63332-4 0  9996
2 41340  31.0055 284.0444 0013789 107.2352 252.9794 15.01672903264512
E-ST@R-II               
1 41459U 16025D   20346.58237649  .00002319  00000-0  11866-3 0  9996
2 41459  98.1199 106.0407 0162239 336.0761  23.2975 15.07088595254118
AAUSAT 4                
1 41460U 16025E   20346.43519416  .00002784  00000-0  13645-3 0  9990
2 41460  98.1164 108.8898 0150770 322.9650  36.1244 15.09676786254337
BEESAT-4                
1 41619U 16040W   20346.41314206  .00003309  00000-0  13681-3 0  9995
2 41619  97.2986  41.5863 0009212 276.3888  83.6300 15.24632081236358
CANX-7                  
1 41788U 16059F   20346.54499173  .00012241  00000-0  15580-2 0  9997
2 41788  98.2586  79.2569 0027942 101.3792 259.0636 14.81445810226000
RAVAN                   
1 41849U 16067B   20346.27882558  .00001617  00000-0  13930-3 0  9990
2 41849  97.9494  99.3118 0009132  28.3774 331.7944 14.98779494223108
CELTEE 1                
1 41850U 16067C   20346.57409476  .00000382  00000-0  38192-4 0  9995
2 41850  97.9399  96.7943 0009021  25.5455 334.6210 14.97297880223003
OPTICUBE 04             
1 41851U 16067D   20346.26940171  .00000777  00000-0  72757-4 0  9997
2 41851  97.9398  96.0021 0009635  31.8893 328.2910 14.97008557222938
AEROCUBE 8D             
1 41852U 16067E   20346.55218684  .00000010  00000-0  61471-5 0  9999
2 41852  97.9400  96.1381 0010315  28.2684 331.9095 14.97045680222953
AEROCUBE 8C             
1 41853U 16067F   20346.58793063  .00000966  00000-0  89170-4 0  9997
2 41853  97.9390  96.0607 0010402  30.9774 329.2058 14.97007082222952
PROMETHEUS 2-1          
1 41854U 16067G   20346.58322493  .00001083  00000-0  98387-4 0  9994
2 41854  97.9397  96.5051 0010446  28.6405 331.5388 14.97396939222977
PROMETHEUS 2-3          
1 41855U 16067H   20346.58250266  .00001063  00000-0  96607-4 0  9994
2 41855  97.9398  96.5459 0010620  28.7746 331.4059 14.97408824222975
INS-1B                  
1 41954U 17008G   20346.44354374  .00003040  00000-0  12321-3 0  9997
2 41954  97.3347  47.5124 0009942  44.8310 315.3730 15.25368660212341
BGUSAT                  
1 41999U 17008BD  20346.43229899  .00005591  00000-0  20397-3 0  9993
2 41999  97.3491  52.7068 0008769  52.4472 307.7563 15.28519351211970
DIDO-2                  
1 42000U 17008BE  20346.45009467  .00001837  00000-0  76704-4 0  9999
2 42000  97.3349  47.9420 0009790  61.8169 298.4057 15.24855221211739
PEASSS                  
1 42015U 17008BV  20346.42076017  .00002849  00000-0  11302-3 0  9993
2 42015  97.3383  49.8938 0007703  65.4803 294.7238 15.26148911212335
AL-FARABI 1             
1 42016U 17008BW  20346.46878384  .00003585  00000-0  13737-3 0  9997
2 42016  97.3423  51.3009 0007454  64.1120 296.0887 15.27144238212535
NAYIF-1 (EO-88)         
1 42017U 17008BX  20346.44257127  .00003718  00000-0  14216-3 0  9993
2 42017  97.3418  51.2842 0007509  63.8190 296.3820 15.27189665212553
UCLSAT                  
1 42765U 17036A   20346.40188462  .00002970  00000-0  12495-3 0  9991
2 42765  97.2788  35.7015 0012621 118.5035 241.7475 15.24076704193529
LITUANICASAT-2          
1 42768U 17036D   20346.43063909  .00004793  00000-0  19437-3 0  9993
2 42768  97.2856  36.0245 0015881 109.6218 250.6736 15.24982894192807
AALTO-1                 
1 42775U 17036L   20346.44156352  .00001682  00000-0  76008-4 0  9999
2 42775  97.2755  33.0350 0015251 114.3635 245.9195 15.22188978192595
URSA MAIOR              
1 42776U 17036M   20346.40809373  .00001896  00000-0  84755-4 0  9999
2 42776  97.2768  33.3679 0015049 114.1210 246.1602 15.22408998192604
COMPASS 2               
1 42777U 17036N   20346.41235205  .00003978  00000-0  16351-3 0  9997
2 42777  97.2840  36.3390 0013615 110.7543 249.5155 15.24654967192754
DIAMOND RED             
1 42783U 17036U   20346.41503529  .00002267  00000-0  98319-4 0  9996
2 42783  97.2788  34.7908 0013356 121.2277 239.0271 15.23278232192683
PEGASUS                 
1 42784U 17036V   20346.59606284  .00002580  00000-0  11005-3 0  9992
2 42784  97.2793  35.5055 0013183 119.2538 241.0019 15.23723137192746
DIAMOND GREEN           
1 42785U 17036W   20346.41406894  .00002335  00000-0  10117-3 0  9990
2 42785  97.2790  34.8306 0013239 121.7503 238.5026 15.23277327192752
DIAMOND BLUE            
1 42786U 17036X   20346.41303504  .00002230  00000-0  96785-4 0  9995
2 42786  97.2790  34.8241 0013078 121.9603 238.2907 15.23277578192758
NUDTSAT                 
1 42787U 17036Y   20346.62074735  .00004900  00000-0  19703-3 0  9990
2 42787  97.2828  37.3663 0011629 109.8526 250.3930 15.25306174192697
SUCHAI                  
1 42788U 17036Z   20346.42084785  .00003178  00000-0  13238-3 0  9998
2 42788  97.2803  36.0991 0012716 117.6242 242.6288 15.24368911192833
SKCUBE                  
1 42789U 17036AA  20346.42147173  .00002955  00000-0  12402-3 0  9994
2 42789  97.2797  35.8929 0012621 118.0372 242.2143 15.24168374192745
VZLUSAT-1               
1 42790U 17036AB  20346.41516315  .00004232  00000-0  17076-3 0  9995
2 42790  97.2829  37.1573 0012100 115.3093 244.9400 15.25264271192812
ROBUSTA-1B              
1 42792U 17036AD  20346.41786492  .00002998  00000-0  12501-3 0  9997
2 42792  97.2800  36.1990 0012208 118.1371 242.1102 15.24376795192772
CICERO 6                
1 42793U 17036AE  20346.42330230  .00001878  00000-0  81371-4 0  9992
2 42793  97.2768  35.3609 0011508 120.6533 239.5841 15.23536316192804
D-SAT                   
1 42794U 17036AF  20346.57650471  .00000494  00000-0  47578-4 0  9995
2 42794  97.4771  10.3087 0127101 133.2052 227.9869 14.91392742189058
CORVUS BC2              
1 42846U 17042X   20346.41096413  .00000544  00000-0  58519-4 0  9996
2 42846  97.4970 221.7253 0010847  52.6319 307.5887 14.92190471185796
CORVUS BC1              
1 42847U 17042Y   20346.59576184  .00000407  00000-0  45016-4 0  9990
2 42847  97.4974 222.1035 0010486  51.6650 308.5511 14.92292219185822
MIRATA                  
1 43015U 17073C   20346.49264705  .00001527  00000-0  12235-3 0  9994
2 43015  97.7131 251.9375 0251279 190.5484 169.0402 14.80118172165403
MAKERSAT 0              
1 43016U 17073D   20346.17356363  .00001049  00000-0  86048-4 0  9995
2 43016  97.7167 251.7653 0254491 193.1201 166.3311 14.79551793165334
DELLINGR (RBLE)         
1 43021U 98067NJ  20346.54727733  .00048057  00000-0  26912-3 0  9990
2 43021  51.6325  90.8638 0002346 346.9804  13.1136 15.78824311174756
AEROCUBE 7B (OCSD B)    
1 43042U 17071F   20346.54693889  .00011007  00000-0  23409-3 0  9996
2 43042  51.6373 276.6566 0003548 349.7633  10.3281 15.45497624169742
AEROCUBE 7C (OCSD C)    
1 43043U 17071G   20346.29497173  .00010933  00000-0  23308-3 0  9992
2 43043  51.6370 277.9894 0003830 352.0561   8.0365 15.45434937169676
CHEFSAT                 
1 43044U 17071H   20346.54926080  .00022161  00000-0  36308-3 0  9995
2 43044  51.6367 254.5388 0002516  15.6831 344.4237 15.52389243170016
ASGARDIA 1              
1 43049U 17071N   20346.54672420  .00010029  00000-0  21490-3 0  9992
2 43049  51.6386 276.0162 0002125  25.9478 334.1616 15.45389323169722
ISARA                   
1 43050U 17071P   20346.47763723  .00019251  00000-0  33456-3 0  9994
2 43050  51.6347 259.1413 0001770  52.0860 308.0289 15.50828347169932
PROPCUBE 2 (FAUNA)      
1 43052U 17071R   20346.53909881  .00010970  00000-0  22940-3 0  9995
2 43052  51.6375 273.7283 0001973  25.6315 334.4770 15.46002387169748
CORVUS BC3              
1 43118U 18004H   20346.50062436  .00001887  00000-0  81406-4 0  9998
2 43118  97.4267  55.1731 0011110 143.5930 216.6065 15.23734974161958
MICROMAS-2A             
1 43131U 18004W   20346.47851945  .00004782  00000-0  18791-3 0  9993
2 43131  97.4333  57.5734 0009850 139.8059 220.3909 15.26128271162088
SPACEBEE-4              
1 43139U 18004AE  20346.47745202  .00007069  00000-0  26284-3 0  9996
2 43139  97.4381  59.2328 0009198 139.7270 220.4652 15.27794723162163
SPACEBEE-3              
1 43140U 18004AF  20346.37007754  .00008985  00000-0  32127-3 0  9991
2 43140  97.4404  60.1292 0008839 137.6390 222.5534 15.29006532162217
SPACEBEE-2              
1 43141U 18004AG  20346.24432390  .00009465  00000-0  33402-3 0  9997
2 43141  97.4418  60.3886 0008752 137.1752 223.0171 15.29420451162218
SPACEBEE-1              
1 43142U 18004AH  20346.49241115  .00010413  00000-0  36163-3 0  9990
2 43142  97.4426  61.0187 0008686 136.0770 224.1162 15.29916633162263
CICERO 7                
1 43143U 18004AJ  20346.47811176  .00004510  00000-0  17760-3 0  9992
2 43143  97.4310  57.7065 0008001 146.4513 213.7233 15.26099558162105
GOMX-4B                 
1 43196U 18015E   20346.51833296  .00002169  00000-0  90555-4 0  9996
2 43196  97.4605 114.0039 0017999 196.3076 163.7584 15.24618047158872
GOMX-4A                 
1 43197U 18015F   20346.51214410  .00001994  00000-0  82806-4 0  9993
2 43197  97.4594 114.1473 0018089 198.4110 226.0111 15.24888216158894
UBAKUSAT                
1 43467U 98067NQ  20346.29800274  .00411027  87436-4  62742-3 0  9992
2 43467  51.6267  81.3132 0006979 350.1414   9.9459 16.03798928148125
TEMPEST-D               
1 43547U 98067NV  20346.56143218  .00057095  00000-0  49468-3 0  9998
2 43547  51.6336 135.3937 0004457 348.9312  11.1586 15.68567056137248
RAINCUBE                
1 43548U 98067NW  20346.54000268  .00483284  12094-3  66484-3 0  9993
2 43548  51.6242  88.8724 0008164 347.0001  13.0800 16.05469693138303
HALOSAT                 
1 43549U 98067NX  20346.58942592  .00287714  44375-4  65643-3 0  9997
2 43549  51.6316  92.4371 0005420 350.6722   9.4185 15.96904090137822
EQUISAT                 
1 43552U 98067PA  20345.72879396  .00407473  85311-4  64767-3 0  9994
2 43552  51.6240  92.5968 0007080 351.3562   8.7326 16.03124887138118
